[{"OBJECT_NAME":"STARLINK-4424","OBJECT_ID":"2022-105AK","EPOCH":"2026-03-09T15:50:05.208000","MEAN_MOTION":15.012628,"ECCENTRICITY":0.00017974,"INCLINATION":97.602,"RA_OF_ASC_NODE":310.1899,"ARG_OF_PERICENTER":58.5581,"MEAN_ANOMALY":301.5819,"EPHEMERIS_TYPE":0,"CLASSIFICATION_TYPE":"U","NORAD_CAT_ID":53681,"ELEMENT_SET_NO":999,"REV_AT_EPOCH":19323,"BSTAR":2.8372042e-5,"MEAN_MOTION_DOT":3.06e-6,"MEAN_MOTION_DDOT":0},{"OBJECT_NAME":"CZ-2D DEB","OBJECT_ID":"2018-048E","EPOCH":"2026-03-09T22:09:24.485184","MEAN_MOTION":14.95292309,"ECCENTRICITY":0.00245463,"INCLINATION":98.262,"RA_OF_ASC_NODE":231.1035,"ARG_OF_PERICENTER":114.5757,"MEAN_ANOMALY":245.8024,"EPHEMERIS_TYPE":0,"CLASSIFICATION_TYPE":"U","NORAD_CAT_ID":43490,"ELEMENT_SET_NO":999,"REV_AT_EPOCH":41934,"BSTAR":0.00070357513,"MEAN_MOTION_DOT":7.737e-5,"MEAN_MOTION_DDOT":0}]
